NORAD_CAT_ID,OBJECT_NAME,OBJECT_TYPE,EPOCH,MEAN_MOTION,ECCENTRICITY,INCLINATION,RA_OF_ASC_NODE,ARG_OF_PERICENTER,MEAN_ANOMALY,BSTAR,MEAN_MOTION_DOT,MEAN_MOTION_DDOT,TLE_LINE0,TLE_LINE1,TLE_LINE2,SEMIMAJOR_AXIS,PERIOD,APOGEE,PERIGEE,DECAYED
53273.0,STARLINK-4051,PAYLOAD,2023-03-14 04:36:22,15.08837926,0.0001348,53.2161,44.0417,109.715,250.3988,0.00014985,2.098e-05,0.0,0 STARLINK-4051,1 53273U 22086AH  23073.19192631  .00002098  00000-0  14985-3 0  9994,2 53273  53.2161  44.0417 0001348 109.7150 250.3988 15.08837926 36248,6917.887,95.438,540.684,538.819,0.0
53273.0,STARLINK-4051,PAYLOAD,2023-03-14 07:47:08,15.08839318,0.0001363,53.216,43.4451,114.8376,245.2758,0.00029421,4.397e-05,0.0,0 STARLINK-4051,1 53273U 22086AH  23073.32440655  .00004397  00000-0  29421-3 0  9996,2 53273  53.2160  43.4451 0001363 114.8376 245.2758 15.08839318 36438,6917.882,95.438,540.69,538.805,0.0
53273.0,STARLINK-4051,PAYLOAD,2023-03-14 22:05:36,15.08848046,0.0001329,53.2158,40.7684,114.3461,245.767,0.00063018,9.758e-05,0.0,0 STARLINK-4051,1 53273U 22086AH  23073.92056700  .00009758  00000-0  63018-3 0  9992,2 53273  53.2158  40.7684 0001329 114.3461 245.7670 15.08848046 36521,6917.856,95.437,540.64,538.801,0.0
53273.0,STARLINK-4051,PAYLOAD,2023-03-15 04:27:09,15.08863646,0.0001604,53.216,39.5792,122.9001,237.2146,0.0016463,0.00026027,0.0,0 STARLINK-4051,1 53273U 22086AH  23074.18552248  .00026027  00000-0  16463-2 0  9998,2 53273  53.2160  39.5792 0001604 122.9001 237.2146 15.08863646 36393,6917.808,95.436,540.783,538.563,0.0
53273.0,STARLINK-4051,PAYLOAD,2023-03-15 07:37:55,15.08876259,0.0001575,53.2156,38.9842,124.0506,236.0636,0.0013173,0.0002076,0.0,0 STARLINK-4051,1 53273U 22086AH  23074.31799783  .00020760  00000-0  13173-2 0  9993,2 53273  53.2156  38.9842 0001575 124.0506 236.0636 15.08876259 36583,6917.77,95.435,540.724,538.545,0.0
53273.0,STARLINK-4051,PAYLOAD,2023-03-16 04:17:56,15.08845066,0.0001024,53.2152,35.1226,97.1254,262.9855,0.0010534,0.00016519,0.0,0 STARLINK-4051,1 53273U 22086AH  23075.17912207  .00016519  00000-0  10534-2 0  9991,2 53273  53.2152  35.1226 0001024  97.1254 262.9855 15.08845066 36542,6917.865,95.437,540.438,539.022,0.0
53273.0,STARLINK-4051,PAYLOAD,2023-03-17 05:44:06,15.08839672,0.0001137,53.2159,30.3644,101.5416,258.5703,0.00045153,6.905e-05,0.0,0 STARLINK-4051,1 53273U 22086AH  23076.23896608  .00006905  00000-0  45153-3 0  9999,2 53273  53.2159  30.3644 0001137 101.5416 258.5703 15.08839672 36702,6917.881,95.438,540.533,538.96,0.0
53273.0,STARLINK-4051,PAYLOAD,2023-03-17 13:41:02,15.08826093,0.0001095,53.2157,28.8763,94.9436,265.1681,0.00022671,3.321e-05,0.0,0 STARLINK-4051,1 53273U 22086AH  23076.57016968  .00003321  00000-0  22671-3 0  9998,2 53273  53.2157  28.8763 0001095  94.9436 265.1681 15.08826093 36751,6917.923,95.438,540.545,539.03,0.0
53273.0,STARLINK-4051,PAYLOAD,2023-03-18 13:31:50,15.08833716,9.01e-05,53.2167,24.4189,108.7019,251.4071,0.00017436,2.488e-05,0.0,0 STARLINK-4051,1 53273U 22086AH  23077.56377821  .00002488  00000-0  17436-3 0  9992,2 53273  53.2167  24.4189 0000901 108.7019 251.4071 15.08833716 37079,6917.9,95.438,540.388,539.141,0.0
53273.0,STARLINK-4051,PAYLOAD,2023-03-19 05:25:40,15.08880094,8.67e-05,53.2151,21.442,111.5152,248.5933,0.001518,0.0002398,0.0,0 STARLINK-4051,1 53273U 22086AH  23078.22616703  .00023980  00000-0  15180-2 0  9994,2 53273  53.2151  21.4420 0000867 111.5152 248.5933 15.08880094 37006,6917.758,95.435,540.223,539.023,0.0
53273.0,STARLINK-4051,PAYLOAD,2023-03-19 13:22:37,15.08854656,0.0001649,53.2158,19.9556,84.3812,275.7368,0.00041231,6.283e-05,0.0,0 STARLINK-4051,1 53273U 22086AH  23078.55737372  .00006283  00000-0  41231-3 0  9990,2 53273  53.2158  19.9556 0001649  84.3812 275.7368 15.08854656 37058,6917.836,95.437,540.841,538.56,0.0
53273.0,STARLINK-4051,PAYLOAD,2023-03-19 19:44:09,15.08858649,0.0001538,53.2143,18.7682,78.4783,281.6382,0.00048312,7.413e-05,0.0,0 STARLINK-4051,1 53273U 22086AH  23078.82233090  .00007413  00000-0  48312-3 0  9991,2 53273  53.2143  18.7682 0001538  78.4783 281.6382 15.08858649 37268,6917.823,95.436,540.752,538.624,0.0
53273.0,STARLINK-4051,PAYLOAD,2023-03-20 05:16:28,15.08856636,8.33e-05,53.2156,16.9822,79.9197,280.1889,0.0022709,0.00036055,0.0,0 STARLINK-4051,1 53273U 22086AH  23079.21977052  .00036055  00000-0  22709-2 0  9993,2 53273  53.2156  16.9822 0000833  79.9197 280.1889 15.08856636 37158,6917.83,95.437,540.271,539.118,0.0
53273.0,STARLINK-4051,PAYLOAD,2023-03-20 13:13:24,15.08844797,0.0001063,53.2157,15.4954,70.5306,289.5801,0.00088622,0.00013846,0.0,0 STARLINK-4051,1 53273U 22086AH  23079.55097446  .00013846  00000-0  88622-3 0  9990,2 53273  53.2157  15.4954 0001063  70.5306 289.5801 15.08844797 37202,6917.866,95.437,540.466,538.995,0.0
53273.0,STARLINK-4051,PAYLOAD,2023-03-21 05:07:15,15.08859118,0.0001181,53.2166,12.5216,70.0432,290.0687,0.0015112,0.00023857,0.0,0 STARLINK-4051,1 53273U 22086AH  23080.21337322  .00023857  00000-0  15112-2 0  9991,2 53273  53.2166  12.5216 0001181  70.0432 290.0687 15.08859118 37478,6917.822,95.436,540.504,538.87,0.0
53273.0,STARLINK-4051,PAYLOAD,2023-03-22 04:58:03,15.08849101,0.0001079,53.2162,8.061,69.9566,290.1542,0.0014495,0.00022862,0.0,0 STARLINK-4051,1 53273U 22086AH  23081.20697973  .00022862  00000-0  14495-2 0  9990,2 53273  53.2162   8.0610 0001079  69.9566 290.1542 15.08849101 37453,6917.853,95.437,540.464,538.971,0.0
53273.0,STARLINK-4051,PAYLOAD,2023-03-23 04:48:49,15.08872544,0.0001032,53.2167,3.6016,86.6154,273.4956,0.0015416,0.00024354,0.0,0 STARLINK-4051,1 53273U 22086AH  23082.20057359  .00024354  00000-0  15416-2 0  9991,2 53273  53.2167   3.6016 0001032  86.6154 273.4956 15.08872544 37604,6917.781,95.435,540.36,538.932,0.0
53273.0,STARLINK-4051,PAYLOAD,2023-03-23 22:18:04,15.0886069,0.0001044,53.2167,0.3311,112.2569,247.8534,0.0022371,0.00035515,0.0,0 STARLINK-4051,1 53273U 22086AH  23082.92921759  .00035515  00000-0  22371-2 0  9993,2 53273  53.2167   0.3311 0001044 112.2569 247.8534 15.08860690 37881,6917.817,95.436,540.404,538.96,0.0
53273.0,STARLINK-4051,PAYLOAD,2023-03-24 04:39:36,15.08942524,0.0001145,53.2167,359.1412,118.1026,242.0082,0.007581,0.00122818,0.0,0 STARLINK-4051,1 53273U 22086AH  23083.19417002  .00122818  00000-0  75810-2 0  9993,2 53273  53.2167 359.1412 0001145 118.1026 242.0082 15.08942524 37751,6917.567,95.431,540.224,538.64,0.0
53273.0,STARLINK-4051,PAYLOAD,2023-03-24 22:08:50,15.08863785,0.0001445,53.2161,355.8703,118.0127,242.1011,0.0016567,0.00026194,0.0,0 STARLINK-4051,1 53273U 22086AH  23083.92281120  .00026194  00000-0  16567-2 0  9998,2 53273  53.2161 355.8703 0001445 118.0127 242.1011 15.08863785 38031,6917.808,95.436,540.672,538.673,0.0
53273.0,STARLINK-4051,PAYLOAD,2023-03-25 01:19:37,15.08853461,0.0001202,53.2156,355.2753,100.5296,259.5831,0.0010798,0.00016945,0.0,0 STARLINK-4051,1 53273U 22086AH  23084.05529150  .00016945  00000-0  10798-2 0  9994,2 53273  53.2156 355.2753 0001202 100.5296 259.5831 15.08853461 37882,6917.839,95.437,540.536,538.873,0.0
53273.0,STARLINK-4051,PAYLOAD,2023-03-25 21:59:38,15.08833187,0.0001284,53.2154,351.409,129.4818,230.6288,0.0010111,0.00015837,0.0,0 STARLINK-4051,1 53273U 22086AH  23084.91642207  .00015837  00000-0  10111-2 0  9996,2 53273  53.2154 351.4090 0001284 129.4818 230.6288 15.08833187 38185,6917.901,95.438,540.654,538.878,0.0
53273.0,STARLINK-4051,PAYLOAD,2023-03-26 02:45:48,15.08827172,0.0001139,53.2161,350.5204,111.7784,248.3329,0.00034552,5.213e-05,0.0,0 STARLINK-4051,1 53273U 22086AH  23085.11514502  .00005213  00000-0  34552-3 0  9998,2 53273  53.2161 350.5204 0001139 111.7784 248.3329 15.08827172 38049,6917.92,95.438,540.573,538.997,0.0
53273.0,STARLINK-4051,PAYLOAD,2023-03-26 21:50:26,15.08842819,0.0001294,53.216,346.9502,83.5102,276.6038,0.00078203,0.00012181,0.0,0 STARLINK-4051,1 53273U 22086AH  23085.91002898  .00012181  00000-0  78203-3 0  9999,2 53273  53.2160 346.9502 0001294  83.5102 276.6038 15.08842819 38338,6917.872,95.437,540.632,538.842,0.0
53273.0,STARLINK-4051,PAYLOAD,2023-03-27 02:36:35,15.08856997,0.0001302,53.2157,346.0559,76.9162,283.1976,0.0011615,0.00018254,0.0,0 STARLINK-4051,1 53273U 22086AH  23086.10874691  .00018254  00000-0  11615-2 0  9999,2 53273  53.2157 346.0559 0001302  76.9162 283.1976 15.08856997 38199,6917.828,95.436,540.594,538.793,0.0
53273.0,STARLINK-4051,PAYLOAD,2023-03-27 21:41:12,15.08859299,0.0001542,53.216,342.487,67.5469,292.5687,0.00067414,0.00010463,0.0,0 STARLINK-4051,1 53273U 22086AH  23086.90362267  .00010463  00000-0  67414-3 0  9991,2 53273  53.2160 342.4870 0001542  67.5469 292.5687 15.08859299 38316,6917.821,95.436,540.753,538.62,0.0
53273.0,STARLINK-4051,PAYLOAD,2023-03-28 02:27:21,15.08868081,0.0001153,53.2153,341.5943,84.6546,275.4578,0.00088453,0.00013828,0.0,0 STARLINK-4051,1 53273U 22086AH  23087.10233745  .00013828  00000-0  88453-3 0  9996,2 53273  53.2153 341.5943 0001153  84.6546 275.4578 15.08868081 38513,6917.795,95.436,540.457,538.862,0.0
53273.0,STARLINK-4051,PAYLOAD,2023-03-28 21:31:59,15.08848869,0.000107,53.2162,338.0277,81.2534,278.8579,0.00074439,0.00011582,0.0,0 STARLINK-4051,1 53273U 22086AH  23087.89721968  .00011582  00000-0  74439-3 0  9995,2 53273  53.2162 338.0277 0001070  81.2534 278.8579 15.08848869 38635,6917.853,95.437,540.458,538.978,0.0
53273.0,STARLINK-4051,PAYLOAD,2023-03-28 23:07:22,15.08858337,0.0001088,53.2161,337.7315,58.6905,301.4193,0.00063088,9.772e-05,0.0,0 STARLINK-4051,1 53273U 22086AH  23087.96345671  .00009772  00000-0  63088-3 0  9992,2 53273  53.2161 337.7315 0001088  58.6905 301.4193 15.08858337 38470,6917.824,95.436,540.442,538.937,0.0
53273.0,STARLINK-4051,PAYLOAD,2023-03-29 02:18:09,15.08855429,0.0001118,53.2158,337.1351,72.0766,288.0348,0.00099917,0.00015656,0.0,0 STARLINK-4051,1 53273U 22086AH  23088.09593797  .00015656  00000-0  99917-3 0  9999,2 53273  53.2158 337.1351 0001118  72.0766 288.0348 15.08855429 38661,6917.833,95.437,540.472,538.925,0.0
